{
  "type": "FeatureCollection",
  "features": [
    {
      "type": "Feature",
      "properties": {
        "norad_id": 31503,
        "name": "FENGYUN 1C DEB",
        "group": "fengyun-1c-debris",
        "lat": 39.57478407467076,
        "lon": 58.29009970965537,
        "alt_km": 778.2371832637291,
        "timestamp": "2025-12-27T13:34:49.577943+00:00",
        "meta_object_name": "FENGYUN 1C DEB",
        "meta_object_id": "1999-025BWS",
        "meta_epoch": "2025-12-23T21:09:21.265632",
        "meta_mean_motion": 14.22635113,
        "meta_eccentricity": 0.0048906,
        "meta_inclination": 100.0985,
        "meta_ra_of_asc_node": 225.603,
        "meta_arg_of_pericenter": 155.2657,
        "meta_mean_anomaly": 205.0876,
        "meta_ephemeris_type": 0,
        "meta_classification_type": "U",
        "meta_norad_cat_id": 31503,
        "meta_element_set_no": 999,
        "meta_rev_at_epoch": 64405,
        "meta_bstar": 0.00094914,
        "meta_mean_motion_dot": 2.094e-05,
        "meta_mean_motion_ddot": 0,
        "tle_line1": "1 31503U 99025BWS 25357.88149613  .00002094  00000+0  94914-3 0  9993",
        "tle_line2": "2 31503 100.0985 225.6030 0048906 155.2657 205.0876 14.22635113644058"
      },
      "geometry": {
        "type": "Point",
        "coordinates": [
          58.29009970965537,
          39.57478407467076
        ]
      }
    },
    {
      "type": "Feature",
      "properties": {
        "norad_id": 31507,
        "name": "FENGYUN 1C DEB",
        "group": "fengyun-1c-debris",
        "lat": -11.841111631846202,
        "lon": 35.190896091512975,
        "alt_km": 663.0887704198558,
        "timestamp": "2025-12-27T13:34:49.577953+00:00",
        "meta_object_name": "FENGYUN 1C DEB",
        "meta_object_id": "1999-025BWW",
        "meta_epoch": "2025-12-25T14:22:23.124864",
        "meta_mean_motion": 14.52219367,
        "meta_eccentricity": 0.0117287,
        "meta_inclination": 98.1925,
        "meta_ra_of_asc_node": 31.5403,
        "meta_arg_of_pericenter": 38.8862,
        "meta_mean_anomaly": 112.9262,
        "meta_ephemeris_type": 0,
        "meta_classification_type": "U",
        "meta_norad_cat_id": 31507,
        "meta_element_set_no": 999,
        "meta_rev_at_epoch": 98207,
        "meta_bstar": 0.00045068,
        "meta_mean_motion_dot": 1.953e-05,
        "meta_mean_motion_ddot": 0,
        "tle_line1": "1 31507U 99025BWW 25359.59887876  .00001953  00000+0  45068-3 0  9996",
        "tle_line2": "2 31507  98.1925  31.5403 0117287  38.8862 112.9262 14.52219367982078"
      },
      "geometry": {
        "type": "Point",
        "coordinates": [
          35.190896091512975,
          -11.841111631846202
        ]
      }
    },
    {
      "type": "Feature",
      "properties": {
        "norad_id": 31508,
        "name": "FENGYUN 1C DEB",
        "group": "fengyun-1c-debris",
        "lat": -47.380461287003,
        "lon": -78.70407360694516,
        "alt_km": 676.4007934150832,
        "timestamp": "2025-12-27T13:34:49.577963+00:00",
        "meta_object_name": "FENGYUN 1C DEB",
        "meta_object_id": "1999-025BWX",
        "meta_epoch": "2025-12-27T05:58:19.610112",
        "meta_mean_motion": 14.62878286,
        "meta_eccentricity": 0.00318058,
        "meta_inclination": 98.6229,
        "meta_ra_of_asc_node": 110.4568,
        "meta_arg_of_pericenter": 279.7377,
        "meta_mean_anomaly": 80.0232,
        "meta_ephemeris_type": 0,
        "meta_classification_type": "U",
        "meta_norad_cat_id": 31508,
        "meta_element_set_no": 999,
        "meta_rev_at_epoch": 97136,
        "meta_bstar": 0.0032306908,
        "meta_mean_motion_dot": 0.00016619,
        "meta_mean_motion_ddot": 0,
        "tle_line1": "1 31508U 99025BWX 25361.24883808  .00016619  00000+0  32307-2 0  9999",
        "tle_line2": "2 31508  98.6229 110.4568 0031805 279.7377  80.0232 14.62878286971362"
      },
      "geometry": {
        "type": "Point",
        "coordinates": [
          -78.70407360694516,
          -47.380461287003
        ]
      }
    },
    {
      "type": "Feature",
      "properties": {
        "norad_id": 31509,
        "name": "FENGYUN 1C DEB",
        "group": "fengyun-1c-debris",
        "lat": -80.33138852032332,
        "lon": -128.32529853201873,
        "alt_km": 910.3243261340685,
        "timestamp": "2025-12-27T13:34:49.577973+00:00",
        "meta_object_name": "FENGYUN 1C DEB",
        "meta_object_id": "1999-025BWY",
        "meta_epoch": "2025-12-27T01:59:22.313760",
        "meta_mean_motion": 13.94983596,
        "meta_eccentricity": 0.02043419,
        "meta_inclination": 99.0214,
        "meta_ra_of_asc_node": 120.0271,
        "meta_arg_of_pericenter": 179.8222,
        "meta_mean_anomaly": 180.3048,
        "meta_ephemeris_type": 0,
        "meta_classification_type": "U",
        "meta_norad_cat_id": 31509,
        "meta_element_set_no": 999,
        "meta_rev_at_epoch": 94162,
        "meta_bstar": 0.0020858357,
        "meta_mean_motion_dot": 3.299e-05,
        "meta_mean_motion_ddot": 0,
        "tle_line1": "1 31509U 99025BWY 25361.08289715  .00003299  00000+0  20858-2 0  9997",
        "tle_line2": "2 31509  99.0214 120.0271 0204341 179.8222 180.3048 13.94983596941626"
      },
      "geometry": {
        "type": "Point",
        "coordinates": [
          -128.32529853201873,
          -80.33138852032332
        ]
      }
    },
    {
      "type": "Feature",
      "properties": {
        "norad_id": 31510,
        "name": "FENGYUN 1C DEB",
        "group": "fengyun-1c-debris",
        "lat": 4.866661729118575,
        "lon": -178.88745078225298,
        "alt_km": 822.4200098994052,
        "timestamp": "2025-12-27T13:34:49.577983+00:00",
        "meta_object_name": "FENGYUN 1C DEB",
        "meta_object_id": "1999-025BWZ",
        "meta_epoch": "2025-12-20T19:32:19.154112",
        "meta_mean_motion": 14.24579723,
        "meta_eccentricity": 0.0036702,
        "meta_inclination": 98.5531,
        "meta_ra_of_asc_node": 353.8036,
        "meta_arg_of_pericenter": 307.7687,
        "meta_mean_anomaly": 180.91,
        "meta_ephemeris_type": 0,
        "meta_classification_type": "U",
        "meta_norad_cat_id": 31510,
        "meta_element_set_no": 999,
        "meta_rev_at_epoch": 96602,
        "meta_bstar": 0.00036270315,
        "meta_mean_motion_dot": 8.05e-06,
        "meta_mean_motion_ddot": 0,
        "tle_line1": "1 31510U 99025BWZ 25354.81411058  .00000805  00000+0  36270-3 0  9995",
        "tle_line2": "2 31510  98.5531 353.8036 0036702 307.7687 180.9100 14.24579723966023"
      },
      "geometry": {
        "type": "Point",
        "coordinates": [
          -178.88745078225298,
          4.866661729118575
        ]
      }
    },
    {
      "type": "Feature",
      "properties": {
        "norad_id": 31511,
        "name": "FENGYUN 1C DEB",
        "group": "fengyun-1c-debris",
        "lat": -2.830287399301939,
        "lon": 171.23786157502192,
        "alt_km": 878.7977983930532,
        "timestamp": "2025-12-27T13:34:49.577993+00:00",
        "meta_object_name": "FENGYUN 1C DEB",
        "meta_object_id": "1999-025BXA",
        "meta_epoch": "2025-12-26T22:27:40.404384",
        "meta_mean_motion": 14.2817164,
        "meta_eccentricity": 0.0109088,
        "meta_inclination": 99.0674,
        "meta_ra_of_asc_node": 170.1315,
        "meta_arg_of_pericenter": 186.1054,
        "meta_mean_anomaly": 173.8803,
        "meta_ephemeris_type": 0,
        "meta_classification_type": "U",
        "meta_norad_cat_id": 31511,
        "meta_element_set_no": 999,
        "meta_rev_at_epoch": 96003,
        "meta_bstar": 0.0016121,
        "meta_mean_motion_dot": 4.231e-05,
        "meta_mean_motion_ddot": 0,
        "tle_line1": "1 31511U 99025BXA 25360.93588431  .00004231  00000+0  16121-2 0  9995",
        "tle_line2": "2 31511  99.0674 170.1315 0109088 186.1054 173.8803 14.28171640960039"
      },
      "geometry": {
        "type": "Point",
        "coordinates": [
          171.23786157502192,
          -2.830287399301939
        ]
      }
    },
    {
      "type": "Feature",
      "properties": {
        "norad_id": 31512,
        "name": "FENGYUN 1C DEB",
        "group": "fengyun-1c-debris",
        "lat": -8.097734382761582,
        "lon": -101.27400326998763,
        "alt_km": 785.2594745293036,
        "timestamp": "2025-12-27T13:34:49.578003+00:00",
        "meta_object_name": "FENGYUN 1C DEB",
        "meta_object_id": "1999-025BXB",
        "meta_epoch": "2025-12-26T22:56:13.178976",
        "meta_mean_motion": 14.43862035,
        "meta_eccentricity": 0.01448,
        "meta_inclination": 98.8041,
        "meta_ra_of_asc_node": 256.8313,
        "meta_arg_of_pericenter": 104.6851,
        "meta_mean_anomaly": 319.1481,
        "meta_ephemeris_type": 0,
        "meta_classification_type": "U",
        "meta_norad_cat_id": 31512,
        "meta_element_set_no": 999,
        "meta_rev_at_epoch": 65707,
        "meta_bstar": 0.00046314,
        "meta_mean_motion_dot": 1.742e-05,
        "meta_mean_motion_ddot": 0,
        "tle_line1": "1 31512U 99025BXB 25360.95570809  .00001742  00000+0  46314-3 0  9990",
        "tle_line2": "2 31512  98.8041 256.8313 0144800 104.6851 319.1481 14.43862035657072"
      },
      "geometry": {
        "type": "Point",
        "coordinates": [
          -101.27400326998763,
          -8.097734382761582
        ]
      }
    }
  ]
}